{
    "links": {
        "self": "http://www.neowsapp.com/rest/v1/neo/3257078?api_key=iIulBulltgU6a56xZRHN4H3l9WmuAYTsLGpBGhQ2"
    },
    "id": "3257078",
    "neo_reference_id": "3257078",
    "name": "(2004 TO20)",
    "designation": "2004 TO20",
    "nasa_jpl_url": "http://ssd.jpl.nasa.gov/sbdb.cgi?sstr=3257078",
    "absolute_magnitude_h": 23.4,
    "estimated_diameter": {
        "kilometers": {
            "estimated_diameter_min": 0.0555334912,
            "estimated_diameter_max": 0.1241766613
        },
        "meters": {
            "estimated_diameter_min": 55.5334911581,
            "estimated_diameter_max": 124.1766612574
        },
        "miles": {
            "estimated_diameter_min": 0.0345069009,
            "estimated_diameter_max": 0.0771597762
        },
        "feet": {
            "estimated_diameter_min": 182.1964991311,
            "estimated_diameter_max": 407.4037573197
        }
    },
    "is_potentially_hazardous_asteroid": false,
    "close_approach_data": [
        {
            "close_approach_date": "1992-06-21",
            "close_approach_date_full": "1992-Jun-21 14:29",
            "epoch_date_close_approach": 709136940000,
            "relative_velocity": {
                "kilometers_per_second": "16.3397101322",
                "kilometers_per_hour": "58822.956475861",
                "miles_per_hour": "36550.2975946815"
            },
            "miss_distance": {
                "astronomical": "0.4227891138",
                "lunar": "164.4649652682",
                "kilometers": "63248350.883667606",
                "miles": "39300702.8413047228"
            },
            "orbiting_body": "Earth"
        },
        {
            "close_approach_date": "2004-09-29",
            "close_approach_date_full": "2004-Sep-29 12:01",
            "epoch_date_close_approach": 1096459260000,
            "relative_velocity": {
                "kilometers_per_second": "7.1519091821",
                "kilometers_per_hour": "25746.8730554568",
                "miles_per_hour": "15998.1056493753"
            },
            "miss_distance": {
                "astronomical": "0.0841824561",
                "lunar": "32.7469754229",
                "kilometers": "12593516.123928507",
                "miles": "7825248.0578351166"
            },
            "orbiting_body": "Earth"
        }
    ],
    "orbital_data": {
        "orbit_id": "10",
        "orbit_determination_date": "2017-04-06 09:11:59",
        "first_observation_date": "2004-10-15",
        "last_observation_date": "2004-11-10",
        "data_arc_in_days": 26,
        "observations_used": 34,
        "orbit_uncertainty": "7",
        "minimum_orbit_intersection": ".0839012",
        "jupiter_tisserand_invariant": "4.607",
        "epoch_osculation": "2459000.5",
        "eccentricity": ".295500859905112",
        "semi_major_axis": "1.438877163803949",
        "inclination": "9.558788292113299",
        "ascending_node_longitude": "207.7509064660968",
        "orbital_period": "630.425841634046",
        "perihelion_distance": "1.013687724602053",
        "perihelion_argument": "123.6731388491017",
        "aphelion_distance": "1.864066603005845",
        "perihelion_time": "2458918.730215757264",
        "mean_anomaly": "46.69402867605267",
        "mean_motion": ".5710425814190773",
        "equinox": "J2000",
        "orbit_class": {
            "orbit_class_type": "APO",
            "orbit_class_description": "Near-Earth asteroid orbits which cross the Earth’s orbit similar to that of 1862 Apollo",
            "orbit_class_range": "a (semi-major axis) > 1.0 AU; q (perihelion) < 1.017 AU"
        }
    },
    "is_sentry_object": false
}